{"type": "FeatureCollection", "features": [ {"type": "Feature", "properties": {"norad_id": 39574, "name": "GPM-CORE", "group": "resource", "lat": -33.76970793258354, "lon": -161.2178204136476, "alt_km": 436.7953707006209, "timestamp": "2025-12-11T10:53:15.541885+00:00", "meta": {"OBJECT_NAME": "GPM-CORE", "OBJECT_ID": "2014-009C", "EPOCH": "2025-12-11T04:50:05.196192", "MEAN_MOTION": 15.44425881, "ECCENTRICITY": 0.0009895, "INCLINATION": 64.9737, "RA_OF_ASC_NODE": 217.8304, "ARG_OF_PERICENTER": 245.0152, "MEAN_ANOMALY": 114.9961, "EPHEMERIS_TYPE": 0, "CLASSIFICATION_TYPE": "U", "NORAD_CAT_ID": 39574, "ELEMENT_SET_NO": 999, "REV_AT_EPOCH": 66877, "BSTAR": 0.00028962, "MEAN_MOTION_DOT": 0.00013261, "MEAN_MOTION_DDOT": 0}, "tle": {"line1": "1 39574U 14009C   25345.20144903  .00013261  00000+0  28962-3 0  9996", "line2": "2 39574  64.9737 217.8304 0009895 245.0152 114.9961 15.44425881668778"}}, "geometry": {"type": "Point", "coordinates": [-161.2178204136476, -33.76970793258354]}}, {"type": "Feature", "properties": {"norad_id": 39634, "name": "SENTINEL-1A", "group": "resource", "lat": -31.74178703866102, "lon": 165.6083445824618, "alt_km": 702.3753021966804, "timestamp": "2025-12-11T10:53:15.541895+00:00", "meta": {"OBJECT_NAME": "SENTINEL-1A", "OBJECT_ID": "2014-016A", "EPOCH": "2025-12-11T03:20:10.723200", "MEAN_MOTION": 14.59198678, "ECCENTRICITY": 0.0001237, "INCLINATION": 98.1804, "RA_OF_ASC_NODE": 350.4037, "ARG_OF_PERICENTER": 83.9473, "MEAN_ANOMALY": 276.1867, "EPHEMERIS_TYPE": 0, "CLASSIFICATION_TYPE": "U", "NORAD_CAT_ID": 39634, "ELEMENT_SET_NO": 999, "REV_AT_EPOCH": 62259, "BSTAR": -1.989e-05, "MEAN_MOTION_DOT": -1.4e-06, "MEAN_MOTION_DDOT": 0}, "tle": {"line1": "1 39634U 14016A   25345.13901300 -.00000140  00000+0 -19890-4 0  9990", "line2": "2 39634  98.1804 350.4037 0001237  83.9473 276.1867 14.59198678622595"}}, "geometry": {"type": "Point", "coordinates": [165.6083445824618, -31.74178703866102]}}, {"type": "Feature", "properties": {"norad_id": 39731, "name": "KAZEOSAT 1", "group": "resource", "lat": -80.63352706548643, "lon": 174.5597284121191, "alt_km": 759.7962056192846, "timestamp": "2025-12-11T10:53:15.541906+00:00", "meta": {"OBJECT_NAME": "KAZEOSAT 1", "OBJECT_ID": "2014-024A", "EPOCH": "2025-12-11T04:39:47.983104", "MEAN_MOTION": 14.42060802, "ECCENTRICITY": 0.0001079, "INCLINATION": 98.343, "RA_OF_ASC_NODE": 57.1358, "ARG_OF_PERICENTER": 95.6222, "MEAN_ANOMALY": 264.509, "EPHEMERIS_TYPE": 0, "CLASSIFICATION_TYPE": "U", "NORAD_CAT_ID": 39731, "ELEMENT_SET_NO": 999, "REV_AT_EPOCH": 61146, "BSTAR": 8.8855e-05, "MEAN_MOTION_DOT": 2.49e-06, "MEAN_MOTION_DDOT": 0}, "tle": {"line1": "1 39731U 14024A   25345.19430536  .00000249  00000+0  88855-4 0  9996", "line2": "2 39731  98.3430  57.1358 0001079  95.6222 264.5090 14.42060802611465"}}, "geometry": {"type": "Point", "coordinates": [174.5597284121191, -80.63352706548643]}}, {"type": "Feature", "properties": {"norad_id": 39766, "name": "ALOS-2", "group": "resource", "lat": -22.927301491905943, "lon": 83.69491695224396, "alt_km": 636.9555707749514, "timestamp": "2025-12-11T10:53:15.541917+00:00", "meta": {"OBJECT_NAME": "ALOS-2", "OBJECT_ID": "2014-029A", "EPOCH": "2025-12-11T06:07:21.242208", "MEAN_MOTION": 14.79475296, "ECCENTRICITY": 0.0001377, "INCLINATION": 97.9226, "RA_OF_ASC_NODE": 80.1224, "ARG_OF_PERICENTER": 100.5045, "MEAN_ANOMALY": 259.6322, "EPHEMERIS_TYPE": 0, "CLASSIFICATION_TYPE": "U", "NORAD_CAT_ID": 39766, "ELEMENT_SET_NO": 999, "REV_AT_EPOCH": 62379, "BSTAR": 0.0009475, "MEAN_MOTION_DOT": 7.032e-05, "MEAN_MOTION_DDOT": 0}, "tle": {"line1": "1 39766U 14029A   25345.25510697  .00007032  00000+0  94750-3 0  9990", "line2": "2 39766  97.9226  80.1224 0001377 100.5045 259.6322 14.79475296623798"}}, "geometry": {"type": "Point", "coordinates": [83.69491695224396, -22.927301491905943]}}, {"type": "Feature", "properties": {"norad_id": 40010, "name": "KAZEOSAT 2", "group": "resource", "lat": -40.464110590974705, "lon": 3.3382154244994826, "alt_km": 614.437450631388, "timestamp": "2025-12-11T10:53:15.541928+00:00", "meta": {"OBJECT_NAME": "KAZEOSAT 2", "OBJECT_ID": "2014-033A", "EPOCH": "2025-12-11T03:25:42.283200", "MEAN_MOTION": 14.85165743, "ECCENTRICITY": 0.0007532, "INCLINATION": 97.5503, "RA_OF_ASC_NODE": 189.5398, "ARG_OF_PERICENTER": 212.393, "MEAN_ANOMALY": 147.6824, "EPHEMERIS_TYPE": 0, "CLASSIFICATION_TYPE": "U", "NORAD_CAT_ID": 40010, "ELEMENT_SET_NO": 999, "REV_AT_EPOCH": 62104, "BSTAR": 0.00020771, "MEAN_MOTION_DOT": 1.729e-05, "MEAN_MOTION_DDOT": 0}, "tle": {"line1": "1 40010U 14033A   25345.14285050  .00001729  00000+0  20771-3 0  9998", "line2": "2 40010  97.5503 189.5398 0007532 212.3930 147.6824 14.85165743621045"}}, "geometry": {"type": "Point", "coordinates": [3.3382154244994826, -40.464110590974705]}}, {"type": "Feature", "properties": {"norad_id": 40011, "name": "HODOYOSHI-4", "group": "resource", "lat": -61.03736396724542, "lon": -171.75025105027308, "alt_km": 613.7884847898658, "timestamp": "2025-12-11T10:53:15.541939+00:00", "meta": {"OBJECT_NAME": "HODOYOSHI-4", "OBJECT_ID": "2014-033B", "EPOCH": "2025-12-11T04:42:30.678624", "MEAN_MOTION": 14.87469493, "ECCENTRICITY": 0.002313, "INCLINATION": 97.5414, "RA_OF_ASC_NODE": 174.1561, "ARG_OF_PERICENTER": 206.1087, "MEAN_ANOMALY": 153.8965, "EPHEMERIS_TYPE": 0, "CLASSIFICATION_TYPE": "U", "NORAD_CAT_ID": 40011, "ELEMENT_SET_NO": 999, "REV_AT_EPOCH": 62085, "BSTAR": 0.00027297, "MEAN_MOTION_DOT": 2.432e-05, "MEAN_MOTION_DDOT": 0}, "tle": {"line1": "1 40011U 14033B   25345.19618841  .00002432  00000+0  27297-3 0  9994", "line2": "2 40011  97.5414 174.1561 0023130 206.1087 153.8965 14.87469493620859"}}, "geometry": {"type": "Point", "coordinates": [-171.75025105027308, -61.03736396724542]}}, {"type": "Feature", "properties": {"norad_id": 40013, "name": "DEIMOS-2", "group": "resource", "lat": 68.33282472787114, "lon": -158.35897167691502, "alt_km": 581.4604090272351, "timestamp": "2025-12-11T10:53:15.541950+00:00", "meta": {"OBJECT_NAME": "DEIMOS-2", "OBJECT_ID": "2014-033D", "EPOCH": "2025-12-11T04:08:33.604224", "MEAN_MOTION": 14.92960898, "ECCENTRICITY": 9.35e-05, "INCLINATION": 97.6063, "RA_OF_ASC_NODE": 221.0247, "ARG_OF_PERICENTER": 90.3871, "MEAN_ANOMALY": 269.7455, "EPHEMERIS_TYPE": 0, "CLASSIFICATION_TYPE": "U", "NORAD_CAT_ID": 40013, "ELEMENT_SET_NO": 999, "REV_AT_EPOCH": 60966, "BSTAR": 0.00025789, "MEAN_MOTION_DOT": 2.623e-05, "MEAN_MOTION_DDOT": 0}, "tle": {"line1": "1 40013U 14033D   25345.17261116  .00002623  00000+0  25789-3 0  9999", "line2": "2 40013  97.6063 221.0247 0000935  90.3871 269.7455 14.92960898609665"}}, "geometry": {"type": "Point", "coordinates": [-158.35897167691502, 68.33282472787114]}}, {"type": "Feature", "properties": {"norad_id": 40015, "name": "HODOYOSHI-3", "group": "resource", "lat": -54.830115009772385, "lon": -39.60772657769762, "alt_km": 599.9346552383277, "timestamp": "2025-12-11T10:53:15.541960+00:00", "meta": {"OBJECT_NAME": "HODOYOSHI-3", "OBJECT_ID": "2014-033F", "EPOCH": "2025-12-11T04:58:33.756960", "MEAN_MOTION": 14.84798425, "ECCENTRICITY": 0.0031867, "INCLINATION": 97.62, "RA_OF_ASC_NODE": 151.109, "ARG_OF_PERICENTER": 253.1769, "MEAN_ANOMALY": 106.595, "EPHEMERIS_TYPE": 0, "CLASSIFICATION_TYPE": "U", "NORAD_CAT_ID": 40015, "ELEMENT_SET_NO": 999, "REV_AT_EPOCH": 61972, "BSTAR": 0.0003351, "MEAN_MOTION_DOT": 2.817e-05, "MEAN_MOTION_DDOT": 0}, "tle": {"line1": "1 40015U 14033F   25345.20733515  .00002817  00000+0  33510-3 0  9998", "line2": "2 40015  97.6200 151.1090 0031867 253.1769 106.5950 14.84798425619724"}}, "geometry": {"type": "Point", "coordinates": [-39.60772657769762, -54.830115009772385]}}, {"type": "Feature", "properties": {"norad_id": 40053, "name": "SPOT 7", "group": "resource", "lat": 68.05052679226561, "lon": 26.889907586304123, "alt_km": 683.145662686512, "timestamp": "2025-12-11T10:53:15.541971+00:00", "meta": {"OBJECT_NAME": "SPOT 7", "OBJECT_ID": "2014-034A", "EPOCH": "2025-12-11T03:59:40.556832", "MEAN_MOTION": 14.60730676, "ECCENTRICITY": 0.0001555, "INCLINATION": 98.0903, "RA_OF_ASC_NODE": 47.2777, "ARG_OF_PERICENTER": 88.92, "MEAN_ANOMALY": 271.2179, "EPHEMERIS_TYPE": 0, "CLASSIFICATION_TYPE": "U", "NORAD_CAT_ID": 40053, "ELEMENT_SET_NO": 999, "REV_AT_EPOCH": 60968, "BSTAR": 0.00019304, "MEAN_MOTION_DOT": 8.96e-06, "MEAN_MOTION_DDOT": 0}, "tle": {"line1": "1 40053U 14034A   25345.16644163  .00000896  00000+0  19304-3 0  9996", "line2": "2 40053  98.0903  47.2777 0001555  88.9200 271.2179 14.60730676609688"}}, "geometry": {"type": "Point", "coordinates": [26.889907586304123, 68.05052679226561]}}, {"type": "Feature", "properties": {"norad_id": 40072, "name": "SKYSAT-B", "group": "resource", "lat": -60.598614912912105, "lon": 93.9628401944663, "alt_km": 613.2907146325642, "timestamp": "2025-12-11T10:53:15.541982+00:00", "meta": {"OBJECT_NAME": "SKYSAT-B", "OBJECT_ID": "2014-037D", "EPOCH": "2025-12-10T17:39:31.026528", "MEAN_MOTION": 14.87315851, "ECCENTRICITY": 0.00059891, "INCLINATION": 98.3608, "RA_OF_ASC_NODE": 288.3359, "ARG_OF_PERICENTER": 156.2588, "MEAN_ANOMALY": 203.8904, "EPHEMERIS_TYPE": 0, "CLASSIFICATION_TYPE": "U", "NORAD_CAT_ID": 40072, "ELEMENT_SET_NO": 999, "REV_AT_EPOCH": 61794, "BSTAR": 0.00035726525, "MEAN_MOTION_DOT": 3.165e-05, "MEAN_MOTION_DDOT": 0}, "tle": {"line1": "1 40072U 14037D   25344.73577577  .00003165  00000+0  35727-3 0  9995", "line2": "2 40072  98.3608 288.3359 0005989 156.2588 203.8904 14.87315851617949"}}, "geometry": {"type": "Point", "coordinates": [93.9628401944663, -60.598614912912105]}}]}